{"type": "FeatureCollection", "features": [ {"type": "Feature", "properties": {"norad_id": 67151, "name": "KUIPER-00246", "group": "last-30-days", "lat": 16.248627151072217, "lon": -136.209634150208, "alt_km": 454.5470496862836, "timestamp": "2025-12-26T20:30:44.704040+00:00", "meta": {"OBJECT_NAME": "KUIPER-00246", "OBJECT_ID": "2025-301U", "EPOCH": "2025-12-26T13:34:36.943104", "MEAN_MOTION": 15.35933694, "ECCENTRICITY": 0.00039602, "INCLINATION": 51.8742, "RA_OF_ASC_NODE": 58.4174, "ARG_OF_PERICENTER": 114.6561, "MEAN_ANOMALY": 245.4838, "EPHEMERIS_TYPE": 0, "CLASSIFICATION_TYPE": "U", "NORAD_CAT_ID": 67151, "ELEMENT_SET_NO": 999, "REV_AT_EPOCH": 251, "BSTAR": 0.00087401428, "MEAN_MOTION_DOT": 0.0003079, "MEAN_MOTION_DDOT": 0}, "tle": {"line1": "1 67151U 25301U   25360.56570536  .00030790  00000+0  87401-3 0  9995", "line2": "2 67151  51.8742  58.4174 0003960 114.6561 245.4838 15.35933694  2510"}}, "geometry": {"type": "Point", "coordinates": [-136.209634150208, 16.248627151072217]}}, {"type": "Feature", "properties": {"norad_id": 67152, "name": "KUIPER-00247", "group": "last-30-days", "lat": 51.30667981095538, "lon": 135.97875821369908, "alt_km": 454.4594915911157, "timestamp": "2025-12-26T20:30:44.704049+00:00", "meta": {"OBJECT_NAME": "KUIPER-00247", "OBJECT_ID": "2025-301V", "EPOCH": "2025-12-26T15:27:40.931136", "MEAN_MOTION": 15.34015344, "ECCENTRICITY": 0.0011231, "INCLINATION": 51.8629, "RA_OF_ASC_NODE": 58.1938, "ARG_OF_PERICENTER": 154.7768, "MEAN_ANOMALY": 205.3768, "EPHEMERIS_TYPE": 0, "CLASSIFICATION_TYPE": "U", "NORAD_CAT_ID": 67152, "ELEMENT_SET_NO": 999, "REV_AT_EPOCH": 250, "BSTAR": 0.00084977733, "MEAN_MOTION_DOT": 0.00028169, "MEAN_MOTION_DDOT": 0}, "tle": {"line1": "1 67152U 25301V   25360.64422374  .00028169  00000+0  84978-3 0  9994", "line2": "2 67152  51.8629  58.1938 0011231 154.7768 205.3768 15.34015344  2502"}}, "geometry": {"type": "Point", "coordinates": [135.97875821369908, 51.30667981095538]}}, {"type": "Feature", "properties": {"norad_id": 67153, "name": "KUIPER-00248", "group": "last-30-days", "lat": 48.1803299153037, "lon": 175.73024093946904, "alt_km": 450.2754994811421, "timestamp": "2025-12-26T20:30:44.704059+00:00", "meta": {"OBJECT_NAME": "KUIPER-00248", "OBJECT_ID": "2025-301W", "EPOCH": "2025-12-26T13:47:24.720288", "MEAN_MOTION": 15.34696919, "ECCENTRICITY": 0.00087479, "INCLINATION": 51.8682, "RA_OF_ASC_NODE": 58.48, "ARG_OF_PERICENTER": 142.7108, "MEAN_ANOMALY": 217.4486, "EPHEMERIS_TYPE": 0, "CLASSIFICATION_TYPE": "U", "NORAD_CAT_ID": 67153, "ELEMENT_SET_NO": 999, "REV_AT_EPOCH": 266, "BSTAR": 0.0010010759, "MEAN_MOTION_DOT": 0.00033987, "MEAN_MOTION_DDOT": 0}, "tle": {"line1": "1 67153U 25301W   25360.57459167  .00033987  00000+0  10011-2 0  9997", "line2": "2 67153  51.8682  58.4800 0008747 142.7108 217.4486 15.34696919  2667"}}, "geometry": {"type": "Point", "coordinates": [175.73024093946904, 48.1803299153037]}}, {"type": "Feature", "properties": {"norad_id": 67154, "name": "KUIPER-00249", "group": "last-30-days", "lat": 44.77573518895578, "lon": -174.10181785894866, "alt_km": 450.2610656620591, "timestamp": "2025-12-26T20:30:44.704070+00:00", "meta": {"OBJECT_NAME": "KUIPER-00249", "OBJECT_ID": "2025-301X", "EPOCH": "2025-12-26T15:19:11.135712", "MEAN_MOTION": 15.34823508, "ECCENTRICITY": 0.00081002, "INCLINATION": 51.8653, "RA_OF_ASC_NODE": 58.1564, "ARG_OF_PERICENTER": 139.941, "MEAN_ANOMALY": 220.2175, "EPHEMERIS_TYPE": 0, "CLASSIFICATION_TYPE": "U", "NORAD_CAT_ID": 67154, "ELEMENT_SET_NO": 999, "REV_AT_EPOCH": 250, "BSTAR": 0.00085989327, "MEAN_MOTION_DOT": 0.00029236, "MEAN_MOTION_DDOT": 0}, "tle": {"line1": "1 67154U 25301X   25360.63832333  .00029236  00000+0  85989-3 0  9994", "line2": "2 67154  51.8653  58.1564 0008100 139.9410 220.2175 15.34823508  2503"}}, "geometry": {"type": "Point", "coordinates": [-174.10181785894866, 44.77573518895578]}}, {"type": "Feature", "properties": {"norad_id": 67155, "name": "KUIPER-00250", "group": "last-30-days", "lat": 33.829241882653854, "lon": -154.6879214660406, "alt_km": 451.1300960824274, "timestamp": "2025-12-26T20:30:44.704079+00:00", "meta": {"OBJECT_NAME": "KUIPER-00250", "OBJECT_ID": "2025-301Y", "EPOCH": "2025-12-26T15:14:29.263488", "MEAN_MOTION": 15.35370073, "ECCENTRICITY": 0.00062401, "INCLINATION": 51.8715, "RA_OF_ASC_NODE": 58.1338, "ARG_OF_PERICENTER": 130.2941, "MEAN_ANOMALY": 229.8591, "EPHEMERIS_TYPE": 0, "CLASSIFICATION_TYPE": "U", "NORAD_CAT_ID": 67155, "ELEMENT_SET_NO": 999, "REV_AT_EPOCH": 253, "BSTAR": 0.00084887979, "MEAN_MOTION_DOT": 0.00029358, "MEAN_MOTION_DDOT": 0}, "tle": {"line1": "1 67155U 25301Y   25360.63506092  .00029358  00000+0  84888-3 0  9997", "line2": "2 67155  51.8715  58.1338 0006240 130.2941 229.8591 15.35370073  2533"}}, "geometry": {"type": "Point", "coordinates": [-154.6879214660406, 33.829241882653854]}}, {"type": "Feature", "properties": {"norad_id": 67156, "name": "KUIPER-00251", "group": "last-30-days", "lat": 46.781701518134476, "lon": -179.6007922591581, "alt_km": 449.7564754341338, "timestamp": "2025-12-26T20:30:44.704088+00:00", "meta": {"OBJECT_NAME": "KUIPER-00251", "OBJECT_ID": "2025-301Z", "EPOCH": "2025-12-26T15:20:18.388608", "MEAN_MOTION": 15.34794129, "ECCENTRICITY": 0.00087532, "INCLINATION": 51.8668, "RA_OF_ASC_NODE": 58.1618, "ARG_OF_PERICENTER": 138.1231, "MEAN_ANOMALY": 222.0426, "EPHEMERIS_TYPE": 0, "CLASSIFICATION_TYPE": "U", "NORAD_CAT_ID": 67156, "ELEMENT_SET_NO": 999, "REV_AT_EPOCH": 269, "BSTAR": 0.00093482401, "MEAN_MOTION_DOT": 0.00031803, "MEAN_MOTION_DDOT": 0}, "tle": {"line1": "1 67156U 25301Z   25360.63910172  .00031803  00000+0  93482-3 0  9994", "line2": "2 67156  51.8668  58.1618 0008753 138.1231 222.0426 15.34794129  2692"}}, "geometry": {"type": "Point", "coordinates": [-179.6007922591581, 46.781701518134476]}}, {"type": "Feature", "properties": {"norad_id": 67157, "name": "KUIPER-00252", "group": "last-30-days", "lat": 51.50061781397649, "lon": 156.15946330400888, "alt_km": 451.92106358480123, "timestamp": "2025-12-26T20:30:44.704096+00:00", "meta": {"OBJECT_NAME": "KUIPER-00252", "OBJECT_ID": "2025-301AA", "EPOCH": "2025-12-26T15:24:28.777536", "MEAN_MOTION": 15.34303489, "ECCENTRICITY": 0.00097843, "INCLINATION": 51.8658, "RA_OF_ASC_NODE": 58.1806, "ARG_OF_PERICENTER": 148.3607, "MEAN_ANOMALY": 211.7968, "EPHEMERIS_TYPE": 0, "CLASSIFICATION_TYPE": "U", "NORAD_CAT_ID": 67157, "ELEMENT_SET_NO": 999, "REV_AT_EPOCH": 250, "BSTAR": 0.00067020405, "MEAN_MOTION_DOT": 0.00022314, "MEAN_MOTION_DDOT": 0}, "tle": {"line1": "1 67157U 25301AA  25360.64199974  .00022314  00000+0  67020-3 0  9991", "line2": "2 67157  51.8658  58.1806 0009784 148.3607 211.7968 15.34303489  2507"}}, "geometry": {"type": "Point", "coordinates": [156.15946330400888, 51.50061781397649]}}, {"type": "Feature", "properties": {"norad_id": 67158, "name": "KUIPER-00261", "group": "last-30-days", "lat": 29.764606089787353, "lon": -149.62961601883057, "alt_km": 452.0350492497182, "timestamp": "2025-12-26T20:30:44.704105+00:00", "meta": {"OBJECT_NAME": "KUIPER-00261", "OBJECT_ID": "2025-301AB", "EPOCH": "2025-12-26T12:05:30.948288", "MEAN_MOTION": 15.35434686, "ECCENTRICITY": 0.00056493, "INCLINATION": 51.8699, "RA_OF_ASC_NODE": 58.7563, "ARG_OF_PERICENTER": 127.9835, "MEAN_ANOMALY": 232.1662, "EPHEMERIS_TYPE": 0, "CLASSIFICATION_TYPE": "U", "NORAD_CAT_ID": 67158, "ELEMENT_SET_NO": 999, "REV_AT_EPOCH": 248, "BSTAR": 0.0009648579, "MEAN_MOTION_DOT": 0.00033506, "MEAN_MOTION_DDOT": 0}, "tle": {"line1": "1 67158U 25301AB  25360.50383042  .00033506  00000+0  96486-3 0  9991", "line2": "2 67158  51.8699  58.7563 0005649 127.9835 232.1662 15.35434686  2481"}}, "geometry": {"type": "Point", "coordinates": [-149.62961601883057, 29.764606089787353]}}, {"type": "Feature", "properties": {"norad_id": 67159, "name": "KUIPER-00265", "group": "last-30-days", "lat": 1.6384167782160812, "lon": -124.30340463652014, "alt_km": 456.9829596487061, "timestamp": "2025-12-26T20:30:44.704114+00:00", "meta": {"OBJECT_NAME": "KUIPER-00265", "OBJECT_ID": "2025-301AC", "EPOCH": "2025-12-26T13:29:51.805824", "MEAN_MOTION": 15.364286, "ECCENTRICITY": 0.00018621, "INCLINATION": 51.8739, "RA_OF_ASC_NODE": 58.3957, "ARG_OF_PERICENTER": 95.873, "MEAN_ANOMALY": 264.2468, "EPHEMERIS_TYPE": 0, "CLASSIFICATION_TYPE": "U", "NORAD_CAT_ID": 67159, "ELEMENT_SET_NO": 999, "REV_AT_EPOCH": 252, "BSTAR": 0.00067821901, "MEAN_MOTION_DOT": 0.00024167, "MEAN_MOTION_DDOT": 0}, "tle": {"line1": "1 67159U 25301AC  25360.56240516  .00024167  00000+0  67822-3 0  9991", "line2": "2 67159  51.8739  58.3957 0001862  95.8730 264.2468 15.36428600  2525"}}, "geometry": {"type": "Point", "coordinates": [-124.30340463652014, 1.6384167782160812]}}, {"type": "Feature", "properties": {"norad_id": 67160, "name": "GALILEO A", "group": "last-30-days", "lat": 16.83259175063326, "lon": 119.56985681949148, "alt_km": 22961.733632597618, "timestamp": "2025-12-26T20:30:44.704124+00:00", "meta": {"OBJECT_NAME": "GALILEO A", "OBJECT_ID": "2025-302A", "EPOCH": "2025-12-18T03:30:19.486368", "MEAN_MOTION": 1.72906186, "ECCENTRICITY": 0.00084238, "INCLINATION": 54.2406, "RA_OF_ASC_NODE": 107.2544, "ARG_OF_PERICENTER": 237.6458, "MEAN_ANOMALY": 122.2317, "EPHEMERIS_TYPE": 0, "CLASSIFICATION_TYPE": "U", "NORAD_CAT_ID": 67160, "ELEMENT_SET_NO": 999, "REV_AT_EPOCH": 2, "BSTAR": 0, "MEAN_MOTION_DOT": -7e-08, "MEAN_MOTION_DDOT": 0}, "tle": {"line1": "1 67160U 25302A   25352.14605887 -.00000007  00000+0  00000+0 0  9994", "line2": "2 67160  54.2406 107.2544 0008423 237.6458 122.2317  1.72906186    28"}}, "geometry": {"type": "Point", "coordinates": [119.56985681949148, 16.83259175063326]}}]}